start=new Date('2023-01-03T00:00:00.000Z').valueOf();
sats=[{"SITE":"AFETR","ELEMENT_SET_NO":"999","LAUNCH_DATE":"2021-04-07","OBJECT_TYPE":"PAYLOAD","EPHEMERIS_TYPE":"0","INCLINATION":"53.0552","GP_ID":"222064164","COUNTRY_CODE":"US","PERIAPSIS":"545.484","RA_OF_ASC_NODE":"348.0355","REV_AT_EPOCH":"9727","MEAN_MOTION_DDOT":"0.0000000000000","TIME_SYSTEM":"UTC","RCS_SIZE":"LARGE","TLE_LINE2":"2 48099  53.0552 348.0355 0002494  40.8755 319.2420 15.06400754 97276","MEAN_MOTION_DOT":"0.00022450","ECCENTRICITY":"0.00024940","BSTAR":"0.00152120000000","TLE_LINE1":"1 48099U 21027H   23002.69371335  .00022450  00000-0  15212-2 0  9992","ARG_OF_PERICENTER":"40.8755","REF_FRAME":"TEME","MEAN_ELEMENT_THEORY":"SGP4","FILE":"3729873","APOAPSIS":"548.938","SEMIMAJOR_AXIS":"6925.346","CENTER_NAME":"EARTH","OBJECT_ID":"2021-027H","MEAN_ANOMALY":"319.2420","PERIOD":"95.592","OBJECT_NAME":"STARLINK-2428","EPOCH":"2023-01-02T16:38:56.833440","MEAN_MOTION":"15.06400754","CLASSIFICATION_TYPE":"U","NORAD_CAT_ID":"48099","DECAY_DATE":null},{"CENTER_NAME":"EARTH","OBJECT_ID":"2021-027J","MEAN_ANOMALY":"326.9482","OBJECT_NAME":"STARLINK-2430","PERIOD":"95.591","DECAY_DATE":null,"NORAD_CAT_ID":"48100","EPOCH":"2023-01-02T14:07:38.125344","CLASSIFICATION_TYPE":"U","MEAN_MOTION":"15.06410559","ARG_OF_PERICENTER":"33.1677","TLE_LINE1":"1 48100U 21027J   23002.58863571 -.00001186  00000-0 -60648-4 0  9991","REF_FRAME":"TEME","APOAPSIS":"549.068","SEMIMAJOR_AXIS":"6925.316","MEAN_ELEMENT_THEORY":"SGP4","FILE":"3729650","REV_AT_EPOCH":"9714","MEAN_MOTION_DDOT":"0.0000000000000","RA_OF_ASC_NODE":"328.4958","RCS_SIZE":"LARGE","TIME_SYSTEM":"UTC","ECCENTRICITY":"0.00027240","MEAN_MOTION_DOT":"-0.00001186","TLE_LINE2":"2 48100  53.0553 328.4958 0002724  33.1677 326.9482 15.06410559 97148","BSTAR":"-0.00006064800000","SITE":"AFETR","LAUNCH_DATE":"2021-04-07","ELEMENT_SET_NO":"999","INCLINATION":"53.0553","EPHEMERIS_TYPE":"0","OBJECT_TYPE":"PAYLOAD","PERIAPSIS":"545.295","COUNTRY_CODE":"US","GP_ID":"222036339"},{"CENTER_NAME":"EARTH","OBJECT_ID":"2021-027K","MEAN_ANOMALY":"323.4600","OBJECT_NAME":"STARLINK-2436","PERIOD":"95.592","NORAD_CAT_ID":"48101","DECAY_DATE":null,"EPOCH":"2023-01-02T15:19:16.038048","MEAN_MOTION":"15.06404444","CLASSIFICATION_TYPE":"U","ARG_OF_PERICENTER":"36.6539","TLE_LINE1":"1 48101U 21027K   23002.63838007  .00014156  00000-0  96722-3 0  9994","REF_FRAME":"TEME","SEMIMAJOR_AXIS":"6925.335","APOAPSIS":"548.724","MEAN_ELEMENT_THEORY":"SGP4","FILE":"3729873","MEAN_MOTION_DDOT":"0.0000000000000","REV_AT_EPOCH":"9741","RA_OF_ASC_NODE":"338.2774","RCS_SIZE":"LARGE","TIME_SYSTEM":"UTC","ECCENTRICITY":"0.00022000","MEAN_MOTION_DOT":"0.00014156","TLE_LINE2":"2 48101  53.0543 338.2774 0002200  36.6539 323.4600 15.06404444 97417","BSTAR":"0.00096722000000","SITE":"AFETR","LAUNCH_DATE":"2021-04-07","ELEMENT_SET_NO":"999","INCLINATION":"53.0543","EPHEMERIS_TYPE":"0","OBJECT_TYPE":"PAYLOAD","PERIAPSIS":"545.676","COUNTRY_CODE":"US","GP_ID":"222063162"},{"DECAY_DATE":null,"NORAD_CAT_ID":"48102","MEAN_MOTION":"15.06395586","EPOCH":"2023-01-02T14:44:48.782400","CLASSIFICATION_TYPE":"U","OBJECT_NAME":"STARLINK-2437","PERIOD":"95.592","OBJECT_ID":"2021-027L","MEAN_ANOMALY":"311.8939","CENTER_NAME":"EARTH","MEAN_ELEMENT_THEORY":"SGP4","FILE":"3729873","APOAPSIS":"548.568","SEMIMAJOR_AXIS":"6925.362","REF_FRAME":"TEME","TLE_LINE1":"1 48102U 21027L   23002.61445350  .00012306  00000-0  84368-3 0  9996","ARG_OF_PERICENTER":"48.2215","BSTAR":"0.00084368000000","MEAN_MOTION_DOT":"0.00012306","ECCENTRICITY":"0.00019360","TLE_LINE2":"2 48102  53.0535 328.3745 0001936  48.2215 311.8939 15.06395586 97548","RCS_SIZE":"LARGE","TIME_SYSTEM":"UTC","MEAN_MOTION_DDOT":"0.0000000000000","REV_AT_EPOCH":"9754","RA_OF_ASC_NODE":"328.3745","COUNTRY_CODE":"US","PERIAPSIS":"545.886","GP_ID":"222063414","INCLINATION":"53.0535","OBJECT_TYPE":"PAYLOAD","EPHEMERIS_TYPE":"0","LAUNCH_DATE":"2021-04-07","ELEMENT_SET_NO":"999","SITE":"AFETR"},{"SEMIMAJOR_AXIS":"6925.324","APOAPSIS":"548.750","MEAN_ELEMENT_THEORY":"SGP4","FILE":"3729873","REF_FRAME":"TEME","ARG_OF_PERICENTER":"40.9478","TLE_LINE1":"1 48103U 21027M   23002.88994246 -.00003987  00000-0 -24884-3 0  9993","DECAY_DATE":null,"NORAD_CAT_ID":"48103","MEAN_MOTION":"15.06407936","EPOCH":"2023-01-02T21:21:31.028544","CLASSIFICATION_TYPE":"U","OBJECT_NAME":"STARLINK-2438","PERIOD":"95.592","OBJECT_ID":"2021-027M","MEAN_ANOMALY":"319.1680","CENTER_NAME":"EARTH","PERIAPSIS":"545.628","COUNTRY_CODE":"US","GP_ID":"222063665","INCLINATION":"53.0555","EPHEMERIS_TYPE":"0","OBJECT_TYPE":"PAYLOAD","LAUNCH_DATE":"2021-04-07","ELEMENT_SET_NO":"999","SITE":"AFETR","BSTAR":"-0.00024884000000","ECCENTRICITY":"0.00022540","MEAN_MOTION_DOT":"-0.00003987","TLE_LINE2":"2 48103  53.0555 327.1807 0002254  40.9478 319.1680 15.06407936 97582","RCS_SIZE":"MEDIUM","TIME_SYSTEM":"UTC","REV_AT_EPOCH":"9758","MEAN_MOTION_DDOT":"0.0000000000000","RA_OF_ASC_NODE":"327.1807"},{"OBJECT_NAME":"STARLINK-2439","PERIOD":"95.592","NORAD_CAT_ID":"48104","DECAY_DATE":null,"MEAN_MOTION":"15.06398144","EPOCH":"2023-01-02T15:13:20.096832","CLASSIFICATION_TYPE":"U","CENTER_NAME":"EARTH","OBJECT_ID":"2021-027N","MEAN_ANOMALY":"276.9953","REF_FRAME":"TEME","APOAPSIS":"548.257","SEMIMAJOR_AXIS":"6925.354","FILE":"3729873","MEAN_ELEMENT_THEORY":"SGP4","ARG_OF_PERICENTER":"83.1206","TLE_LINE1":"1 48104U 21027N   23002.63426038  .00000757  00000-0  69708-4 0  9991","ECCENTRICITY":"0.00014990","MEAN_MOTION_DOT":"0.00000757","TLE_LINE2":"2 48104  53.0542 333.2878 0001499  83.1206 276.9953 15.06398144 97485","BSTAR":"0.00006970800000","REV_AT_EPOCH":"9748","MEAN_MOTION_DDOT":"0.0000000000000","RA_OF_ASC_NODE":"333.2878","RCS_SIZE":"LARGE","TIME_SYSTEM":"UTC","INCLINATION":"53.0542","EPHEMERIS_TYPE":"0","OBJECT_TYPE":"PAYLOAD","PERIAPSIS":"546.181","COUNTRY_CODE":"US","GP_ID":"222062413","SITE":"AFETR","LAUNCH_DATE":"2021-04-07","ELEMENT_SET_NO":"999"},{"TLE_LINE1":"1 48105U 21027P   23002.47531988  .00008468  00000-0  58717-3 0  9999","ARG_OF_PERICENTER":"86.4903","REF_FRAME":"TEME","MEAN_ELEMENT_THEORY":"SGP4","FILE":"3729583","APOAPSIS":"548.552","SEMIMAJOR_AXIS":"6925.439","CENTER_NAME":"EARTH","OBJECT_ID":"2021-027P","MEAN_ANOMALY":"273.6292","OBJECT_NAME":"STARLINK-2440","PERIOD":"95.594","NORAD_CAT_ID":"48105","DECAY_DATE":null,"MEAN_MOTION":"15.06370339","EPOCH":"2023-01-02T11:24:27.637632","CLASSIFICATION_TYPE":"U","SITE":"AFETR","LAUNCH_DATE":"2021-04-07","ELEMENT_SET_NO":"999","INCLINATION":"53.0547","OBJECT_TYPE":"PAYLOAD","EPHEMERIS_TYPE":"0","COUNTRY_CODE":"US","PERIAPSIS":"546.057","GP_ID":"222029619","REV_AT_EPOCH":"9822","MEAN_MOTION_DDOT":"0.0000000000000","RA_OF_ASC_NODE":"279.0061","RCS_SIZE":"LARGE","TIME_SYSTEM":"UTC","MEAN_MOTION_DOT":"0.00008468","ECCENTRICITY":"0.00018010","TLE_LINE2":"2 48105  53.0547 279.0061 0001801  86.4903 273.6292 15.06370339 98228","BSTAR":"0.00058717000000"},{"INCLINATION":"53.0531","EPHEMERIS_TYPE":"0","OBJECT_TYPE":"PAYLOAD","PERIAPSIS":"545.988","COUNTRY_CODE":"US","GP_ID":"222029370","SITE":"AFETR","LAUNCH_DATE":"2021-04-07","ELEMENT_SET_NO":"999","ECCENTRICITY":"0.00017360","MEAN_MOTION_DOT":"0.00013497","TLE_LINE2":"2 48106  53.0531 328.4920 0001736  59.2964 300.8195 15.06407600 97548","BSTAR":"0.00092308000000","MEAN_MOTION_DDOT":"0.0000000000000","REV_AT_EPOCH":"9754","RA_OF_ASC_NODE":"328.4920","RCS_SIZE":"LARGE","TIME_SYSTEM":"UTC","REF_FRAME":"TEME","SEMIMAJOR_AXIS":"6925.325","APOAPSIS":"548.393","MEAN_ELEMENT_THEORY":"SGP4","FILE":"3729583","ARG_OF_PERICENTER":"59.2964","TLE_LINE1":"1 48106U 21027Q   23002.59232761  .00013497  00000-0  92308-3 0  9992","OBJECT_NAME":"STARLINK-2442","PERIOD":"95.592","DECAY_DATE":null,"NORAD_CAT_ID":"48106","CLASSIFICATION_TYPE":"U","EPOCH":"2023-01-02T14:12:57.105504","MEAN_MOTION":"15.06407600","CENTER_NAME":"EARTH","OBJECT_ID":"2021-027Q","MEAN_ANOMALY":"300.8195"},{"CENTER_NAME":"EARTH","MEAN_ANOMALY":"308.5549","OBJECT_ID":"2021-027R","PERIOD":"95.592","OBJECT_NAME":"STARLINK-2443","EPOCH":"2023-01-02T14:34:10.311456","CLASSIFICATION_TYPE":"U","MEAN_MOTION":"15.06401754","NORAD_CAT_ID":"48107","DECAY_DATE":null,"TLE_LINE1":"1 48107U 21027R   23002.60706379  .00005603  00000-0  39471-3 0  9998","ARG_OF_PERICENTER":"51.5600","REF_FRAME":"TEME","FILE":"3729652","MEAN_ELEMENT_THEORY":"SGP4","APOAPSIS":"548.440","SEMIMAJOR_AXIS":"6925.343","RA_OF_ASC_NODE":"328.4166","MEAN_MOTION_DDOT":"0.0000000000000","REV_AT_EPOCH":"9714","TIME_SYSTEM":"UTC","RCS_SIZE":"LARGE","TLE_LINE2":"2 48107  53.0530 328.4166 0001778  51.5600 308.5549 15.06401754 97146","MEAN_MOTION_DOT":"0.00005603","ECCENTRICITY":"0.00017780","BSTAR":"0.00039471000000","SITE":"AFETR","ELEMENT_SET_NO":"999","LAUNCH_DATE":"2021-04-07","OBJECT_TYPE":"PAYLOAD","EPHEMERIS_TYPE":"0","INCLINATION":"53.0530","GP_ID":"222036497","COUNTRY_CODE":"US","PERIAPSIS":"545.977"},{"TLE_LINE1":"1 48108U 21027S   23002.64669597  .00000925  00000-0  80979-4 0  9995","ARG_OF_PERICENTER":"61.0658","MEAN_ELEMENT_THEORY":"SGP4","FILE":"3729873","APOAPSIS":"548.373","SEMIMAJOR_AXIS":"6925.346","REF_FRAME":"TEME","MEAN_ANOMALY":"299.0499","OBJECT_ID":"2021-027S","CENTER_NAME":"EARTH","NORAD_CAT_ID":"48108","DECAY_DATE":null,"MEAN_MOTION":"15.06400860","CLASSIFICATION_TYPE":"U","EPOCH":"2023-01-02T15:31:14.531808","OBJECT_NAME":"STARLINK-2444","PERIOD":"95.592","LAUNCH_DATE":"2021-04-07","ELEMENT_SET_NO":"999","SITE":"AFETR","COUNTRY_CODE":"US","PERIAPSIS":"546.049","GP_ID":"222062913","INCLINATION":"53.0554","OBJECT_TYPE":"PAYLOAD","EPHEMERIS_TYPE":"0","RCS_SIZE":"LARGE","TIME_SYSTEM":"UTC","MEAN_MOTION_DDOT":"0.0000000000000","REV_AT_EPOCH":"9740","RA_OF_ASC_NODE":"338.2344","BSTAR":"0.00008097900000","MEAN_MOTION_DOT":"0.00000925","ECCENTRICITY":"0.00016780","TLE_LINE2":"2 48108  53.0554 338.2344 0001678  61.0658 299.0499 15.06400860 97402"}];
